     2.10           N: GPS NAV DATA                         RINEX VERSION / TYPE
RTKCONV 2.4.2                           20231219 145112 UTC PGM / RUN BY / DATE 
log: C:\Users\adminlocal\Desktop\verniquet\verniquet\micro  COMMENT             
format: u-blox                                              COMMENT             
                                                            END OF HEADER       
13 23 12 19 11 59 44.0  .607218127698E-03  .386535248253E-11  .000000000000E+00
     .400000000000E+01 -.838437500000E+02  .446768609706E-08  .163897605251E+01
    -.432878732681E-05  .773258320987E-02  .838562846184E-05  .515366387177E+04
     .215984000000E+06 -.147148966789E-06  .853334564878E+00 -.521540641785E-07
     .970583111380E+00  .224531250000E+03  .953948442525E+00 -.808462247126E-08
    -.177507393895E-09  .100000000000E+01  .229300000000E+04  .000000000000E+00
     .240000000000E+01  .000000000000E+00 -.111758708954E-07  .400000000000E+01
     .212196000000E+06  .400000000000E+01
15 23 12 19 12  0  0.0  .108487438411E-03  .386535248253E-11  .000000000000E+00
     .230000000000E+02 -.728125000000E+02  .554630245433E-08  .964707101957E+00
    -.378116965294E-05  .154417773010E-01  .653229653835E-05  .515358057213E+04
     .216000000000E+06 -.212341547012E-06  .566135420898E+00 -.335276126862E-07
     .934097657991E+00  .245906250000E+03  .128169778557E+01 -.883893960588E-08
    -.179650340301E-09  .100000000000E+01  .229300000000E+04  .000000000000E+00
     .240000000000E+01  .000000000000E+00 -.102445483208E-07  .230000000000E+02
     .212196000000E+06  .400000000000E+01
22 23 12 19 12  0  0.0  .633322633803E-04 -.670752342558E-11  .000000000000E+00
     .600000000000E+02  .522187500000E+02  .462804991971E-08  .254753598701E+01
     .276602804661E-05  .148108613212E-01  .622123479843E-05  .515372008705E+04
     .216000000000E+06  .149011611938E-06  .289875006060E+01  .372529029846E-07
     .962755131827E+00  .257125000000E+03 -.115390940292E+01 -.794890253227E-08
    -.842892252703E-10  .100000000000E+01  .229300000000E+04  .000000000000E+00
     .240000000000E+01  .000000000000E+00 -.111758708954E-07  .600000000000E+02
     .212196000000E+06  .400000000000E+01
14 23 12 19 12  0  0.0  .275102443993E-03  .104591890704E-10  .000000000000E+00
     .210000000000E+03  .488437500000E+02  .504449583779E-08 -.157417472544E+01
     .253878533840E-05  .377084966749E-02  .640936195850E-05  .515367523384E+04
     .216000000000E+06 -.558793544769E-07  .283551918632E+01 -.115483999252E-06
     .947193267613E+00  .250562500000E+03 -.296064837011E+01 -.832498962638E-08
     .739316509786E-10  .100000000000E+01  .229300000000E+04  .000000000000E+00
     .240000000000E+01  .000000000000E+00 -.791624188423E-08  .210000000000E+03
     .212196000000E+06  .400000000000E+01
 5 23 12 19 12  0  0.0 -.154702924192E-03 -.147792889038E-11  .000000000000E+00
     .480000000000E+02  .593750000000E+01  .459126267309E-08  .229864339243E+01
     .279396772385E-06  .581070536282E-02  .547058880329E-05  .515377246284E+04
     .216000000000E+06 -.111758708954E-07 -.380494074660E+00 -.987201929092E-07
     .969281149399E+00  .278843750000E+03  .123808282579E+01 -.814141055100E-08
     .286440502825E-09  .100000000000E+01  .229300000000E+04  .000000000000E+00
     .240000000000E+01  .000000000000E+00 -.111758708954E-07  .480000000000E+02
     .212196000000E+06  .400000000000E+01
24 23 12 19 12  0  0.0 -.396575778723E-03 -.795807864051E-11  .000000000000E+00
     .500000000000E+02 -.106875000000E+02  .529557772493E-08  .180959107227E+00
    -.374391674995E-06  .149901368422E-01  .102967023849E-04  .515362254143E+04
     .216000000000E+06 -.931322574615E-07  .166785934385E+01  .214204192162E-06
     .933537484715E+00  .167531250000E+03  .953908681874E+00 -.853928426689E-08
    -.114290474943E-10  .100000000000E+01  .229300000000E+04  .000000000000E+00
     .240000000000E+01  .000000000000E+00  .232830643654E-08  .500000000000E+02
     .212196000000E+06  .400000000000E+01
30 23 12 19 12  0  0.0 -.455676577985E-03  .443378667114E-11  .000000000000E+00
     .420000000000E+02  .843750000000E+01  .504592446872E-08 -.960895584472E+00
     .363215804100E-06  .663467473350E-02  .113882124424E-04  .515372140694E+04
     .216000000000E+06  .180676579475E-06  .176516080777E+01  .651925802231E-07
     .935041875059E+00  .143531250000E+03 -.255282361224E+01 -.823712882376E-08
     .700029159024E-10  .100000000000E+01  .229300000000E+04  .000000000000E+00
     .240000000000E+01  .000000000000E+00  .372529029846E-08  .420000000000E+02
     .212196000000E+06  .400000000000E+01
23 23 12 19 12  0  0.0  .118923839182E-03  .693489710102E-11  .000000000000E+00
     .700000000000E+02 -.309375000000E+01  .433018036939E-08 -.111543018091E+01
    -.150874257088E-06  .392987055238E-02  .513531267643E-05  .515369986343E+04
     .216000000000E+06  .279396772385E-07 -.362048725766E+00  .000000000000E+00
     .977128748146E+00  .287875000000E+03 -.300676702348E+01 -.814319633967E-08
     .301083969927E-09  .100000000000E+01  .229300000000E+04  .000000000000E+00
     .240000000000E+01  .000000000000E+00 -.838190317154E-08  .838000000000E+03
     .212196000000E+06  .400000000000E+01
17 23 12 19 12  0  0.0  .721745193005E-03 -.682121026330E-12  .000000000000E+00
     .310000000000E+02 -.136250000000E+02  .417945980556E-08  .201906020729E+01
    -.720843672752E-06  .137861373369E-01  .734813511372E-05  .515363531876E+04
     .216000000000E+06  .277534127235E-06 -.236681444012E+01 -.409781932831E-07
     .971438949177E+00  .237156250000E+03 -.135829749283E+01 -.782425448303E-08
    -.416445918073E-09  .100000000000E+01  .229300000000E+04  .000000000000E+00
     .240000000000E+01  .000000000000E+00 -.111758708954E-07  .310000000000E+02
     .212196000000E+06  .400000000000E+01
18 23 12 19 12  0  0.0 -.510283280164E-03 -.989075488178E-11  .000000000000E+00
     .230000000000E+02  .256250000000E+02  .402909639947E-08 -.834337319898E-01
     .138208270073E-05  .383773865178E-02  .842660665512E-05  .515364374542E+04
     .216000000000E+06  .558793544769E-07 -.136226476574E+01  .931322574615E-08
     .974260164749E+00  .224437500000E+03 -.302328191153E+01 -.798283251702E-08
     .131791203918E-09  .100000000000E+01  .229300000000E+04  .000000000000E+00
     .240000000000E+01  .000000000000E+00 -.838190317154E-08  .535000000000E+03
     .212436000000E+06  .400000000000E+01
19 23 12 19 12  0  0.0  .414604786783E-03  .522959453519E-11  .000000000000E+00
     .550000000000E+02 -.102500000000E+02  .423910514717E-08 -.221711557352E+01
    -.322237610817E-06  .936683954205E-02  .813603401184E-05  .515367186165E+04
     .216000000000E+06 -.126659870148E-06 -.232239509484E+01  .987201929092E-07
     .970553882276E+00  .227312500000E+03  .246064455744E+01 -.798461830569E-08
    -.342157109360E-09  .100000000000E+01  .229300000000E+04  .000000000000E+00
     .240000000000E+01  .000000000000E+00 -.153668224812E-07  .550000000000E+02
     .212826000000E+06  .400000000000E+01
10 23 12 19 12  0  0.0 -.659329816699E-04 -.159161572810E-11  .000000000000E+00
     .810000000000E+02 -.556250000000E+01  .421196115937E-08 -.228293449617E+01
    -.439584255219E-06  .922213611193E-02  .506453216076E-05  .515368832207E+04
     .216000000000E+06  .130385160446E-06 -.333844177219E+00 -.391155481339E-07
     .981997330736E+00  .292375000000E+03 -.240838719991E+01 -.799068998717E-08
     .342514267094E-09  .100000000000E+01  .229300000000E+04  .000000000000E+00
     .240000000000E+01  .000000000000E+00  .232830643654E-08  .810000000000E+02
     .213516000000E+06  .400000000000E+01
17 23 12 19 11 59 44.0  .721738673747E-03 -.795807864051E-12  .000000000000E+00
     .630000000000E+02 -.136250000000E+02  .417945980556E-08  .201672625169E+01
    -.720843672752E-06  .137861332623E-01  .734813511372E-05  .515363531876E+04
     .215984000000E+06  .277534127235E-06 -.236681431577E+01 -.409781932831E-07
     .971438957955E+00  .237156250000E+03 -.135829729533E+01 -.782425448303E-08
    -.416445918073E-09  .100000000000E+01  .229300000000E+04  .000000000000E+00
     .240000000000E+01  .000000000000E+00 -.111758708954E-07  .630000000000E+02
     .213726000000E+06  .400000000000E+01
12 23 12 19 12  0  0.0 -.459028873593E-03 -.397903932026E-11  .000000000000E+00
     .330000000000E+02  .503750000000E+02  .471912514193E-08 -.155190282172E+01
     .267662107944E-05  .883526669350E-02  .626407563686E-05  .515373703003E+04
     .216000000000E+06  .856816768646E-07  .287741761215E+01  .216066837311E-06
     .963883110423E+00  .260218750000E+03  .139954678387E+01 -.817176895841E-08
    -.135719938995E-10  .100000000000E+01  .229300000000E+04  .000000000000E+00
     .240000000000E+01  .000000000000E+00 -.125728547573E-07  .330000000000E+02
     .214746000000E+06  .400000000000E+01
